[{"OBJECT_NAME":"ICEYE-X11","OBJECT_ID":"2021-059AR","EPOCH":"2026-03-09T23:58:26.261184","MEAN_MOTION":15.74026715,"ECCENTRICITY":0.00046944,"INCLINATION":97.6457,"RA_OF_ASC_NODE":256.9655,"ARG_OF_PERICENTER":333.4383,"MEAN_ANOMALY":26.664,"EPHEMERIS_TYPE":0,"CLASSIFICATION_TYPE":"U","NORAD_CAT_ID":48918,"ELEMENT_SET_NO":999,"REV_AT_EPOCH":26228,"BSTAR":0.00071987659,"MEAN_MOTION_DOT":0.00103309,"MEAN_MOTION_DDOT":0},{"OBJECT_NAME":"STARLINK-36639","OBJECT_ID":"2026-022X","EPOCH":"2026-03-09T15:16:09.716448","MEAN_MOTION":15.75193353,"ECCENTRICITY":0.0001984,"INCLINATION":97.2844,"RA_OF_ASC_NODE":102.6583,"ARG_OF_PERICENTER":65.5542,"MEAN_ANOMALY":294.593,"EPHEMERIS_TYPE":0,"CLASSIFICATION_TYPE":"U","NORAD_CAT_ID":67669,"ELEMENT_SET_NO":999,"REV_AT_EPOCH":554,"BSTAR":0.0016618,"MEAN_MOTION_DOT":0.0025533,"MEAN_MOTION_DDOT":0}]
